start=new Date('2023-03-28T00:00:00.000Z').valueOf();
sats=[{"TLE_LINE1":"1 50181U 21125AB  23086.28219801  .00003871  00000-0  26113-3 0  9991","OBJECT_ID":"2021-125AB","OBJECT_TYPE":"PAYLOAD","BSTAR":"0.00026113000000","REF_FRAME":"TEME","APOAPSIS":"540.487","PERIOD":"95.437","EPHEMERIS_TYPE":"0","OBJECT_NAME":"STARLINK-3285","GP_ID":"228959196","MEAN_ELEMENT_THEORY":"SGP4","DECAY_DATE":null,"TLE_LINE2":"2 50181  53.2174  50.2855 0001103  99.0159 261.0958 15.08847060 73800","EPOCH":"2023-03-27T06:46:21.908064","PERIAPSIS":"538.961","REV_AT_EPOCH":"7380","MEAN_MOTION_DDOT":"0.0000000000000","CLASSIFICATION_TYPE":"U","LAUNCH_DATE":"2021-12-18","MEAN_MOTION":"15.08847060","TIME_SYSTEM":"UTC","NORAD_CAT_ID":"50181","FILE":"3872569","MEAN_ANOMALY":"261.0958","COUNTRY_CODE":"US","ELEMENT_SET_NO":"999","ECCENTRICITY":"0.00011030","MEAN_MOTION_DOT":"0.00003871","ARG_OF_PERICENTER":"99.0159","SEMIMAJOR_AXIS":"6917.859","RA_OF_ASC_NODE":"50.2855","SITE":"AFWTR","INCLINATION":"53.2174","RCS_SIZE":"LARGE","CENTER_NAME":"EARTH"},{"PERIOD":"95.436","APOAPSIS":"540.158","OBJECT_ID":"2021-125AC","OBJECT_TYPE":"PAYLOAD","BSTAR":"0.00126030000000","REF_FRAME":"TEME","TLE_LINE1":"1 50182U 21125AC  23086.40635584  .00019842  00000-0  12603-2 0  9999","DECAY_DATE":null,"TLE_LINE2":"2 50182  53.2168  49.7203 0000719 110.3038 249.8031 15.08867636 73334","MEAN_ELEMENT_THEORY":"SGP4","EPHEMERIS_TYPE":"0","OBJECT_NAME":"STARLINK-3277","GP_ID":"228969452","TIME_SYSTEM":"UTC","NORAD_CAT_ID":"50182","FILE":"3872884","LAUNCH_DATE":"2021-12-18","MEAN_MOTION":"15.08867636","MEAN_MOTION_DDOT":"0.0000000000000","CLASSIFICATION_TYPE":"U","PERIAPSIS":"539.164","EPOCH":"2023-03-27T09:45:09.144576","REV_AT_EPOCH":"7333","INCLINATION":"53.2168","RCS_SIZE":"LARGE","CENTER_NAME":"EARTH","SEMIMAJOR_AXIS":"6917.796","RA_OF_ASC_NODE":"49.7203","SITE":"AFWTR","MEAN_MOTION_DOT":"0.00019842","ARG_OF_PERICENTER":"110.3038","MEAN_ANOMALY":"249.8031","COUNTRY_CODE":"US","ELEMENT_SET_NO":"999","ECCENTRICITY":"0.00007190"},{"CENTER_NAME":"EARTH","RCS_SIZE":"LARGE","INCLINATION":"53.2165","SITE":"AFWTR","RA_OF_ASC_NODE":"49.7030","SEMIMAJOR_AXIS":"6917.812","ARG_OF_PERICENTER":"90.8919","MEAN_MOTION_DOT":"0.00008244","ECCENTRICITY":"0.00013690","ELEMENT_SET_NO":"999","COUNTRY_CODE":"US","MEAN_ANOMALY":"269.2230","FILE":"3872569","NORAD_CAT_ID":"50183","TIME_SYSTEM":"UTC","MEAN_MOTION":"15.08862250","LAUNCH_DATE":"2021-12-18","CLASSIFICATION_TYPE":"U","MEAN_MOTION_DDOT":"0.0000000000000","REV_AT_EPOCH":"7386","EPOCH":"2023-03-27T09:50:26.932416","PERIAPSIS":"538.730","TLE_LINE2":"2 50183  53.2165  49.7030 0001369  90.8919 269.2230 15.08862250 73864","DECAY_DATE":null,"MEAN_ELEMENT_THEORY":"SGP4","OBJECT_NAME":"STARLINK-3281","GP_ID":"228960691","EPHEMERIS_TYPE":"0","APOAPSIS":"540.624","PERIOD":"95.436","REF_FRAME":"TEME","OBJECT_ID":"2021-125AD","OBJECT_TYPE":"PAYLOAD","BSTAR":"0.00053513000000","TLE_LINE1":"1 50183U 21125AD  23086.41003394  .00008244  00000-0  53513-3 0  9999"},{"EPOCH":"2023-03-27T21:08:45.679200","PERIAPSIS":"538.998","REV_AT_EPOCH":"7389","MEAN_MOTION_DDOT":"0.0000000000000","CLASSIFICATION_TYPE":"U","MEAN_MOTION":"15.08834739","LAUNCH_DATE":"2021-12-18","NORAD_CAT_ID":"50185","TIME_SYSTEM":"UTC","FILE":"3872915","COUNTRY_CODE":"US","MEAN_ANOMALY":"311.8449","ECCENTRICITY":"0.00011030","ELEMENT_SET_NO":"999","MEAN_MOTION_DOT":"-0.00000378","ARG_OF_PERICENTER":"48.2638","SEMIMAJOR_AXIS":"6917.896","SITE":"AFWTR","RA_OF_ASC_NODE":"47.5916","CENTER_NAME":"EARTH","INCLINATION":"53.2180","RCS_SIZE":"LARGE","TLE_LINE1":"1 50185U 21125AF  23086.88108425 -.00000378  00000-0 -56826-5 0  9997","REF_FRAME":"TEME","OBJECT_ID":"2021-125AF","OBJECT_TYPE":"PAYLOAD","BSTAR":"-0.00000568260000","APOAPSIS":"540.525","PERIOD":"95.438","OBJECT_NAME":"STARLINK-3279","GP_ID":"228992652","EPHEMERIS_TYPE":"0","MEAN_ELEMENT_THEORY":"SGP4","DECAY_DATE":null,"TLE_LINE2":"2 50185  53.2180  47.5916 0001103  48.2638 311.8449 15.08834739 73893"},{"PERIOD":"95.437","APOAPSIS":"540.374","TLE_LINE1":"1 50186U 21125AG  23086.36496226  .00021815  00000-0  13842-2 0  9995","REF_FRAME":"TEME","OBJECT_TYPE":"PAYLOAD","BSTAR":"0.00138420000000","OBJECT_ID":"2021-125AG","TLE_LINE2":"2 50186  53.2163  59.9064 0000945 107.4731 252.6364 15.08848195 73665","DECAY_DATE":null,"OBJECT_NAME":"STARLINK-3274","GP_ID":"228959695","EPHEMERIS_TYPE":"0","MEAN_ELEMENT_THEORY":"SGP4","MEAN_MOTION":"15.08848195","LAUNCH_DATE":"2021-12-18","FILE":"3872569","NORAD_CAT_ID":"50186","TIME_SYSTEM":"UTC","REV_AT_EPOCH":"7366","EPOCH":"2023-03-27T08:45:32.739264","PERIAPSIS":"539.067","CLASSIFICATION_TYPE":"U","MEAN_MOTION_DDOT":"0.0000000000000","SITE":"AFWTR","RA_OF_ASC_NODE":"59.9064","SEMIMAJOR_AXIS":"6917.855","CENTER_NAME":"EARTH","INCLINATION":"53.2163","RCS_SIZE":"LARGE","ECCENTRICITY":"0.00009450","ELEMENT_SET_NO":"999","COUNTRY_CODE":"US","MEAN_ANOMALY":"252.6364","ARG_OF_PERICENTER":"107.4731","MEAN_MOTION_DOT":"0.00021815"},{"CENTER_NAME":"EARTH","RCS_SIZE":"LARGE","INCLINATION":"53.2178","SEMIMAJOR_AXIS":"6917.849","SITE":"AFWTR","RA_OF_ASC_NODE":"40.3787","MEAN_MOTION_DOT":"0.00012257","ARG_OF_PERICENTER":"86.4902","COUNTRY_CODE":"US","MEAN_ANOMALY":"273.6207","ECCENTRICITY":"0.00010220","ELEMENT_SET_NO":"999","NORAD_CAT_ID":"50187","TIME_SYSTEM":"UTC","FILE":"3872569","MEAN_MOTION":"15.08850241","LAUNCH_DATE":"2021-12-18","MEAN_MOTION_DDOT":"0.0000000000000","CLASSIFICATION_TYPE":"U","EPOCH":"2023-03-27T06:14:31.032960","PERIAPSIS":"539.007","REV_AT_EPOCH":"7391","DECAY_DATE":null,"TLE_LINE2":"2 50187  53.2178  40.3787 0001022  86.4902 273.6207 15.08850241 73913","MEAN_ELEMENT_THEORY":"SGP4","GP_ID":"228959947","OBJECT_NAME":"STARLINK-3272","EPHEMERIS_TYPE":"0","APOAPSIS":"540.421","PERIOD":"95.437","REF_FRAME":"TEME","OBJECT_TYPE":"PAYLOAD","OBJECT_ID":"2021-125AH","BSTAR":"0.00078663000000","TLE_LINE1":"1 50187U 21125AH  23086.26008140  .00012257  00000-0  78663-3 0  9992"},{"APOAPSIS":"517.581","PERIOD":"94.945","REF_FRAME":"TEME","BSTAR":"0.00258760000000","OBJECT_TYPE":"PAYLOAD","OBJECT_ID":"2021-125AJ","TLE_LINE1":"1 50188U 21125AJ  23086.30465458  .00051325  00000-0  25876-2 0  9993","DECAY_DATE":null,"TLE_LINE2":"2 50188  53.2188  37.8327 0002440  68.8655 291.2601 15.16675369 74011","MEAN_ELEMENT_THEORY":"SGP4","OBJECT_NAME":"STARLINK-3275","GP_ID":"228960192","EPHEMERIS_TYPE":"0","NORAD_CAT_ID":"50188","TIME_SYSTEM":"UTC","FILE":"3872569","MEAN_MOTION":"15.16675369","LAUNCH_DATE":"2021-12-18","MEAN_MOTION_DDOT":"0.0000000000000","CLASSIFICATION_TYPE":"U","EPOCH":"2023-03-27T07:18:42.155712","PERIAPSIS":"514.217","REV_AT_EPOCH":"7401","CENTER_NAME":"EARTH","INCLINATION":"53.2188","RCS_SIZE":"LARGE","SEMIMAJOR_AXIS":"6894.034","SITE":"AFWTR","RA_OF_ASC_NODE":"37.8327","MEAN_MOTION_DOT":"0.00051325","ARG_OF_PERICENTER":"68.8655","COUNTRY_CODE":"US","MEAN_ANOMALY":"291.2601","ECCENTRICITY":"0.00024400","ELEMENT_SET_NO":"999"},{"MEAN_MOTION":"15.08846736","LAUNCH_DATE":"2021-12-18","NORAD_CAT_ID":"50189","TIME_SYSTEM":"UTC","FILE":"3872569","PERIAPSIS":"538.965","EPOCH":"2023-03-27T08:00:33.382080","REV_AT_EPOCH":"7384","MEAN_MOTION_DDOT":"0.0000000000000","CLASSIFICATION_TYPE":"U","SEMIMAJOR_AXIS":"6917.860","SITE":"AFWTR","RA_OF_ASC_NODE":"50.0558","CENTER_NAME":"EARTH","INCLINATION":"53.2169","RCS_SIZE":"LARGE","COUNTRY_CODE":"US","MEAN_ANOMALY":"241.3607","ECCENTRICITY":"0.00010990","ELEMENT_SET_NO":"999","MEAN_MOTION_DOT":"0.00021766","ARG_OF_PERICENTER":"118.7495","PERIOD":"95.437","APOAPSIS":"540.485","TLE_LINE1":"1 50189U 21125AK  23086.33371970  .00021766  00000-0  13812-2 0  9995","REF_FRAME":"TEME","OBJECT_ID":"2021-125AK","OBJECT_TYPE":"PAYLOAD","BSTAR":"0.00138120000000","DECAY_DATE":null,"TLE_LINE2":"2 50189  53.2169  50.0558 0001099 118.7495 241.3607 15.08846736 73841","OBJECT_NAME":"STARLINK-3276","GP_ID":"228958948","EPHEMERIS_TYPE":"0","MEAN_ELEMENT_THEORY":"SGP4"},{"INCLINATION":"53.2182","RCS_SIZE":"LARGE","CENTER_NAME":"EARTH","RA_OF_ASC_NODE":"40.4271","SITE":"AFWTR","SEMIMAJOR_AXIS":"6917.863","ARG_OF_PERICENTER":"96.8500","MEAN_MOTION_DOT":"0.00004064","ELEMENT_SET_NO":"999","ECCENTRICITY":"0.00014810","MEAN_ANOMALY":"263.2660","COUNTRY_CODE":"US","FILE":"3872569","NORAD_CAT_ID":"50190","TIME_SYSTEM":"UTC","LAUNCH_DATE":"2021-12-18","MEAN_MOTION":"15.08845677","CLASSIFICATION_TYPE":"U","MEAN_MOTION_DDOT":"0.0000000000000","REV_AT_EPOCH":"7392","EPOCH":"2023-03-27T05:58:36.827904","PERIAPSIS":"538.704","TLE_LINE2":"2 50190  53.2182  40.4271 0001481  96.8500 263.2660 15.08845677 73925","DECAY_DATE":null,"MEAN_ELEMENT_THEORY":"SGP4","EPHEMERIS_TYPE":"0","GP_ID":"228959197","OBJECT_NAME":"STARLINK-3268","APOAPSIS":"540.753","PERIOD":"95.437","OBJECT_TYPE":"PAYLOAD","OBJECT_ID":"2021-125AL","BSTAR":"0.00027323000000","REF_FRAME":"TEME","TLE_LINE1":"1 50190U 21125AL  23086.24903736  .00004064  00000-0  27323-3 0  9993"},{"PERIOD":"95.437","APOAPSIS":"540.569","REF_FRAME":"TEME","BSTAR":"0.00063855000000","OBJECT_TYPE":"PAYLOAD","OBJECT_ID":"2021-125AM","TLE_LINE1":"1 50191U 21125AM  23086.65567953  .00009892  00000-0  63855-3 0  9990","DECAY_DATE":null,"TLE_LINE2":"2 50191  53.2168  58.6050 0001243  68.1655 291.9470 15.08851858 73706","MEAN_ELEMENT_THEORY":"SGP4","GP_ID":"228993653","OBJECT_NAME":"STARLINK-3273","EPHEMERIS_TYPE":"0","TIME_SYSTEM":"UTC","NORAD_CAT_ID":"50191","FILE":"3872915","MEAN_MOTION":"15.08851858","LAUNCH_DATE":"2021-12-18","MEAN_MOTION_DDOT":"0.0000000000000","CLASSIFICATION_TYPE":"U","PERIAPSIS":"538.849","EPOCH":"2023-03-27T15:44:10.711392","REV_AT_EPOCH":"7370","CENTER_NAME":"EARTH","RCS_SIZE":"LARGE","INCLINATION":"53.2168","SEMIMAJOR_AXIS":"6917.844","SITE":"AFWTR","RA_OF_ASC_NODE":"58.6050","MEAN_MOTION_DOT":"0.00009892","ARG_OF_PERICENTER":"68.1655","COUNTRY_CODE":"US","MEAN_ANOMALY":"291.9470","ECCENTRICITY":"0.00012430","ELEMENT_SET_NO":"999"}];
